WESTAR 1                
1 07250U 74022A   26117.07510818  .00000096  00000+0  00000+0 0  9999
2 07250   7.2238 298.3840 0005891  47.4134 310.1211  0.99890762121810
TITAN 3C TRANSTAGE R/B  
1 07324U 74039C   26117.05322521  .00000111  00000+0  00000+0 0  9997
2 07324   2.8739 261.1357 0033479  83.6679 285.8496  1.00722818119111
SL-6 R/B(2)             
1 07373U 74026E   26106.95547137 -.00000352  00000+0  00000+0 0  9994
2 07373  64.1313 302.2819 7104046 269.1994  16.2621  2.06585704385671
MOLNIYA 2-10            
1 07376U 74056A   26112.98869567 -.00001223  00000+0  00000+0 0  9992
2 07376  65.3138 305.8782 6732417 269.9727  19.0897  2.01161569378627
MOLNIYA 1-S             
1 07392U 74060A   26117.44489241 -.00000332  00000+0  00000+0 0  9998
2 07392   1.5037 252.6493 0007853 280.4541 304.8449  1.00310450133662
WESTAR 2                
1 07466U 74075A   26117.43042321 -.00000156  00000+0  00000+0 0  9993
2 07466   7.3731 300.0950 0002248 204.6732 136.6577  0.99847528137146
INTELSAT 4-F8           
1 07544U 74093A   26116.91494752 -.00000296  00000+0  00000+0 0  9996
2 07544   8.0787 304.9140 0001878 197.3809   8.2782  0.99792309124691
ATLAS CENTAUR R/B       
1 07545U 74093B   26117.21431946 -.00000050  00000+0  73366-3 0  9994
2 07545  26.0014  70.3349 7198585 291.9368   9.6661  2.21277301285775
SKYNET 2B               
1 07547U 74094A   26117.00837458 -.00000153  00000+0  00000+0 0  9997
2 07547   3.7003 281.1869 0001626 180.0224 193.9040  1.00392677124250
SYMPHONIE 1             
1 07578U 74101A   26116.84691656 -.00000207  00000+0  00000+0 0  9999
2 07578   4.7073 277.6853 0002932  48.9526 174.8042  0.99963456116687
COSMOS 706              
1 07625U 75007A   26114.97753108 -.00000548  00000+0  00000+0 0  9999
2 07625  63.9521 159.3278 6862525   3.1755 359.7327  2.00622448235372
SMS 2                   
1 07648U 75011A   26117.21711356 -.00000072  00000+0  00000+0 0  9990
2 07648   5.5991 283.8620 0011887 280.4833 100.6064  0.99513912135171
MOLNIYA 1-29            
1 07780U 75036A   26115.91876793  .00000219  00000+0 -16910-1 0  9998
2 07780  64.0225  67.1273 6901584 279.2291  14.6462  2.00619467373870
ANIK A3 (TELESAT 3)     
1 07790U 75038A   26116.71377339  .00000104  00000+0  00000+0 0  9995
2 07790   7.8096 303.1374 0001930  58.0845 140.8652  1.00049267129444
SL-6 R/B(2)             
1 07800U 75036D   26112.48648221 -.00000617  00000+0  00000+0 0  9996
2 07800  63.7663 148.7257 6682174 283.3809  14.8426  1.96860844366094
ATLAS CENTAUR R/B       
1 07902U 75042B   26116.88190409 -.00000107  00000+0  10640-2 0  9992
2 07902  25.5703 270.7761 7196170 265.3904  16.9884  2.21156613279878
ATLAS AGENA R/B         
1 07964U 75055B   26116.20501841 -.00000184  00000+0  00000+0 0  9997
2 07964   9.6915 234.3297 1190652 141.6915 227.3664  1.02090885 26167
