[{"OBJECT_NAME":"WESTAR 1","OBJECT_ID":"1974-022A","EPOCH":"2026-04-27T01:48:09.346752","MEAN_MOTION":0.99890762,"ECCENTRICITY":0.00058911,"INCLINATION":7.2238,"RA_OF_ASC_NODE":298.384,"ARG_OF_PERICENTER":47.4134,"MEAN_ANOMALY":310.1211,"EPHEMERIS_TYPE":0,"CLASSIFICATION_TYPE":"U","NORAD_CAT_ID":7250,"ELEMENT_SET_NO":999,"REV_AT_EPOCH":12181,"BSTAR":0,"MEAN_MOTION_DOT":9.6e-7,"MEAN_MOTION_DDOT":0},{"OBJECT_NAME":"TITAN 3C TRANSTAGE R/B","OBJECT_ID":"1974-039C","EPOCH":"2026-04-27T01:16:38.658144","MEAN_MOTION":1.00722818,"ECCENTRICITY":0.00334793,"INCLINATION":2.8739,"RA_OF_ASC_NODE":261.1357,"ARG_OF_PERICENTER":83.6679,"MEAN_ANOMALY":285.8496,"EPHEMERIS_TYPE":0,"CLASSIFICATION_TYPE":"U","NORAD_CAT_ID":7324,"ELEMENT_SET_NO":999,"REV_AT_EPOCH":11911,"BSTAR":0,"MEAN_MOTION_DOT":1.11e-6,"MEAN_MOTION_DDOT":0},{"OBJECT_NAME":"SL-6 R/B(2)","OBJECT_ID":"1974-026E","EPOCH":"2026-04-16T22:55:52.726368","MEAN_MOTION":2.06585704,"ECCENTRICITY":0.71040463,"INCLINATION":64.1313,"RA_OF_ASC_NODE":302.2819,"ARG_OF_PERICENTER":269.1994,"MEAN_ANOMALY":16.2621,"EPHEMERIS_TYPE":0,"CLASSIFICATION_TYPE":"U","NORAD_CAT_ID":7373,"ELEMENT_SET_NO":999,"REV_AT_EPOCH":38567,"BSTAR":0,"MEAN_MOTION_DOT":-3.52e-6,"MEAN_MOTION_DDOT":0},{"OBJECT_NAME":"MOLNIYA 2-10","OBJECT_ID":"1974-056A","EPOCH":"2026-04-22T23:43:43.305888","MEAN_MOTION":2.01161569,"ECCENTRICITY":0.67324175,"INCLINATION":65.3138,"RA_OF_ASC_NODE":305.8782,"ARG_OF_PERICENTER":269.9727,"MEAN_ANOMALY":19.0897,"EPHEMERIS_TYPE":0,"CLASSIFICATION_TYPE":"U","NORAD_CAT_ID":7376,"ELEMENT_SET_NO":999,"REV_AT_EPOCH":37862,"BSTAR":0,"MEAN_MOTION_DOT":-1.223e-5,"MEAN_MOTION_DDOT":0},{"OBJECT_NAME":"MOLNIYA 1-S","OBJECT_ID":"1974-060A","EPOCH":"2026-04-27T10:40:38.704224","MEAN_MOTION":1.0031045,"ECCENTRICITY":0.0007853,"INCLINATION":1.5037,"RA_OF_ASC_NODE":252.6493,"ARG_OF_PERICENTER":280.4541,"MEAN_ANOMALY":304.8449,"EPHEMERIS_TYPE":0,"CLASSIFICATION_TYPE":"U","NORAD_CAT_ID":7392,"ELEMENT_SET_NO":999,"REV_AT_EPOCH":13366,"BSTAR":0,"MEAN_MOTION_DOT":-3.32e-6,"MEAN_MOTION_DDOT":0},{"OBJECT_NAME":"WESTAR 2","OBJECT_ID":"1974-075A","EPOCH":"2026-04-27T10:19:48.565344","MEAN_MOTION":0.99847528,"ECCENTRICITY":0.0002248,"INCLINATION":7.3731,"RA_OF_ASC_NODE":300.095,"ARG_OF_PERICENTER":204.6732,"MEAN_ANOMALY":136.6577,"EPHEMERIS_TYPE":0,"CLASSIFICATION_TYPE":"U","NORAD_CAT_ID":7466,"ELEMENT_SET_NO":999,"REV_AT_EPOCH":13714,"BSTAR":0,"MEAN_MOTION_DOT":-1.56e-6,"MEAN_MOTION_DDOT":0},{"OBJECT_NAME":"INTELSAT 4-F8","OBJECT_ID":"1974-093A","EPOCH":"2026-04-26T21:57:31.465728","MEAN_MOTION":0.99792309,"ECCENTRICITY":0.0001878,"INCLINATION":8.0787,"RA_OF_ASC_NODE":304.914,"ARG_OF_PERICENTER":197.3809,"MEAN_ANOMALY":8.2782,"EPHEMERIS_TYPE":0,"CLASSIFICATION_TYPE":"U","NORAD_CAT_ID":7544,"ELEMENT_SET_NO":999,"REV_AT_EPOCH":12469,"BSTAR":0,"MEAN_MOTION_DOT":-2.96e-6,"MEAN_MOTION_DDOT":0},{"OBJECT_NAME":"ATLAS CENTAUR R/B","OBJECT_ID":"1974-093B","EPOCH":"2026-04-27T05:08:37.201344","MEAN_MOTION":2.21277301,"ECCENTRICITY":0.7198585,"INCLINATION":26.0014,"RA_OF_ASC_NODE":70.3349,"ARG_OF_PERICENTER":291.9368,"MEAN_ANOMALY":9.6661,"EPHEMERIS_TYPE":0,"CLASSIFICATION_TYPE":"U","NORAD_CAT_ID":7545,"ELEMENT_SET_NO":999,"REV_AT_EPOCH":28577,"BSTAR":0.00073366,"MEAN_MOTION_DOT":-5.0e-7,"MEAN_MOTION_DDOT":0},{"OBJECT_NAME":"SKYNET 2B","OBJECT_ID":"1974-094A","EPOCH":"2026-04-27T00:12:03.563712","MEAN_MOTION":1.00392677,"ECCENTRICITY":0.00016264,"INCLINATION":3.7003,"RA_OF_ASC_NODE":281.1869,"ARG_OF_PERICENTER":180.0224,"MEAN_ANOMALY":193.904,"EPHEMERIS_TYPE":0,"CLASSIFICATION_TYPE":"U","NORAD_CAT_ID":7547,"ELEMENT_SET_NO":999,"REV_AT_EPOCH":12425,"BSTAR":0,"MEAN_MOTION_DOT":-1.53e-6,"MEAN_MOTION_DDOT":0},{"OBJECT_NAME":"SYMPHONIE 1","OBJECT_ID":"1974-101A","EPOCH":"2026-04-26T20:19:33.590784","MEAN_MOTION":0.99963456,"ECCENTRICITY":0.00029329,"INCLINATION":4.7073,"RA_OF_ASC_NODE":277.6853,"ARG_OF_PERICENTER":48.9526,"MEAN_ANOMALY":174.8042,"EPHEMERIS_TYPE":0,"CLASSIFICATION_TYPE":"U","NORAD_CAT_ID":7578,"ELEMENT_SET_NO":999,"REV_AT_EPOCH":11668,"BSTAR":0,"MEAN_MOTION_DOT":-2.07e-6,"MEAN_MOTION_DDOT":0},{"OBJECT_NAME":"COSMOS 706","OBJECT_ID":"1975-007A","EPOCH":"2026-04-24T23:27:38.685312","MEAN_MOTION":2.00622448,"ECCENTRICITY":0.6862525,"INCLINATION":63.9521,"RA_OF_ASC_NODE":159.3278,"ARG_OF_PERICENTER":3.1755,"MEAN_ANOMALY":359.7327,"EPHEMERIS_TYPE":0,"CLASSIFICATION_TYPE":"U","NORAD_CAT_ID":7625,"ELEMENT_SET_NO":999,"REV_AT_EPOCH":23537,"BSTAR":0,"MEAN_MOTION_DOT":-5.48e-6,"MEAN_MOTION_DDOT":0},{"OBJECT_NAME":"SMS 2","OBJECT_ID":"1975-011A","EPOCH":"2026-04-27T05:12:38.611584","MEAN_MOTION":0.99513912,"ECCENTRICITY":0.00118874,"INCLINATION":5.5991,"RA_OF_ASC_NODE":283.862,"ARG_OF_PERICENTER":280.4833,"MEAN_ANOMALY":100.6064,"EPHEMERIS_TYPE":0,"CLASSIFICATION_TYPE":"U","NORAD_CAT_ID":7648,"ELEMENT_SET_NO":999,"REV_AT_EPOCH":13517,"BSTAR":0,"MEAN_MOTION_DOT":-7.2e-7,"MEAN_MOTION_DDOT":0},{"OBJECT_NAME":"MOLNIYA 1-29","OBJECT_ID":"1975-036A","EPOCH":"2026-04-25T22:03:01.549152","MEAN_MOTION":2.00619467,"ECCENTRICITY":0.69015847,"INCLINATION":64.0225,"RA_OF_ASC_NODE":67.1273,"ARG_OF_PERICENTER":279.2291,"MEAN_ANOMALY":14.6462,"EPHEMERIS_TYPE":0,"CLASSIFICATION_TYPE":"U","NORAD_CAT_ID":7780,"ELEMENT_SET_NO":999,"REV_AT_EPOCH":37387,"BSTAR":-0.016909811,"MEAN_MOTION_DOT":2.19e-6,"MEAN_MOTION_DDOT":0},{"OBJECT_NAME":"ANIK A3 (TELESAT 3)","OBJECT_ID":"1975-038A","EPOCH":"2026-04-26T17:07:50.020896","MEAN_MOTION":1.00049267,"ECCENTRICITY":0.00019308,"INCLINATION":7.8096,"RA_OF_ASC_NODE":303.1374,"ARG_OF_PERICENTER":58.0845,"MEAN_ANOMALY":140.8652,"EPHEMERIS_TYPE":0,"CLASSIFICATION_TYPE":"U","NORAD_CAT_ID":7790,"ELEMENT_SET_NO":999,"REV_AT_EPOCH":12944,"BSTAR":0,"MEAN_MOTION_DOT":1.04e-6,"MEAN_MOTION_DDOT":0},{"OBJECT_NAME":"SL-6 R/B(2)","OBJECT_ID":"1975-036D","EPOCH":"2026-04-22T11:40:32.062944","MEAN_MOTION":1.96860844,"ECCENTRICITY":0.6682174,"INCLINATION":63.7663,"RA_OF_ASC_NODE":148.7257,"ARG_OF_PERICENTER":283.3809,"MEAN_ANOMALY":14.8426,"EPHEMERIS_TYPE":0,"CLASSIFICATION_TYPE":"U","NORAD_CAT_ID":7800,"ELEMENT_SET_NO":999,"REV_AT_EPOCH":36609,"BSTAR":0,"MEAN_MOTION_DOT":-6.17e-6,"MEAN_MOTION_DDOT":0},{"OBJECT_NAME":"ATLAS CENTAUR R/B","OBJECT_ID":"1975-042B","EPOCH":"2026-04-26T21:09:56.513376","MEAN_MOTION":2.21156613,"ECCENTRICITY":0.719617,"INCLINATION":25.5703,"RA_OF_ASC_NODE":270.7761,"ARG_OF_PERICENTER":265.3904,"MEAN_ANOMALY":16.9884,"EPHEMERIS_TYPE":0,"CLASSIFICATION_TYPE":"U","NORAD_CAT_ID":7902,"ELEMENT_SET_NO":999,"REV_AT_EPOCH":27987,"BSTAR":0.001064,"MEAN_MOTION_DOT":-1.07e-6,"MEAN_MOTION_DDOT":0},{"OBJECT_NAME":"ATLAS AGENA R/B","OBJECT_ID":"1975-055B","EPOCH":"2026-04-26T04:55:13.590624","MEAN_MOTION":1.02090885,"ECCENTRICITY":0.11906525,"INCLINATION":9.6915,"RA_OF_ASC_NODE":234.3297,"ARG_OF_PERICENTER":141.6915,"MEAN_ANOMALY":227.3664,"EPHEMERIS_TYPE":0,"CLASSIFICATION_TYPE":"U","NORAD_CAT_ID":7964,"ELEMENT_SET_NO":999,"REV_AT_EPOCH":2616,"BSTAR":0,"MEAN_MOTION_DOT":-1.84e-6,"MEAN_MOTION_DDOT":0}]
